[{"OBJECT_NAME":"COSMOS 2588","OBJECT_ID":"2025-109A","EPOCH":"2026-03-09T19:28:59.107008","MEAN_MOTION":15.29122656,"ECCENTRICITY":0.0005019,"INCLINATION":72.9704,"RA_OF_ASC_NODE":73.5401,"ARG_OF_PERICENTER":308.678,"MEAN_ANOMALY":51.3966,"EPHEMERIS_TYPE":0,"CLASSIFICATION_TYPE":"U","NORAD_CAT_ID":64095,"ELEMENT_SET_NO":999,"REV_AT_EPOCH":4442,"BSTAR":0.00032611,"MEAN_MOTION_DOT":9.169e-5,"MEAN_MOTION_DDOT":0},{"OBJECT_NAME":"STARLINK-34416","OBJECT_ID":"2025-137AB","EPOCH":"2026-03-09T22:29:58.788672","MEAN_MOTION":15.30138478,"ECCENTRICITY":0.00016653,"INCLINATION":53.1604,"RA_OF_ASC_NODE":334.023,"ARG_OF_PERICENTER":11.2658,"MEAN_ANOMALY":348.8379,"EPHEMERIS_TYPE":0,"CLASSIFICATION_TYPE":"U","NORAD_CAT_ID":64619,"ELEMENT_SET_NO":999,"REV_AT_EPOCH":4077,"BSTAR":0.0012194054,"MEAN_MOTION_DOT":0.00035862,"MEAN_MOTION_DDOT":0}]
